[{"OBJECT_NAME":"STARLINK-1020","OBJECT_ID":"2019-074N","EPOCH":"2026-03-09T16:03:14.161824","MEAN_MOTION":15.30188453,"ECCENTRICITY":9.782e-5,"INCLINATION":53.1589,"RA_OF_ASC_NODE":203.9432,"ARG_OF_PERICENTER":90.3777,"MEAN_ANOMALY":269.7336,"EPHEMERIS_TYPE":0,"CLASSIFICATION_TYPE":"U","NORAD_CAT_ID":44725,"ELEMENT_SET_NO":999,"REV_AT_EPOCH":34850,"BSTAR":-5.0945385e-5,"MEAN_MOTION_DOT":-1.867e-5,"MEAN_MOTION_DDOT":0},{"OBJECT_NAME":"PHISAT 2","OBJECT_ID":"2024-149C","EPOCH":"2026-03-09T18:55:12.732384","MEAN_MOTION":15.29548632,"ECCENTRICITY":0.00011753,"INCLINATION":97.3806,"RA_OF_ASC_NODE":148.6498,"ARG_OF_PERICENTER":168.623,"MEAN_ANOMALY":191.5037,"EPHEMERIS_TYPE":0,"CLASSIFICATION_TYPE":"U","NORAD_CAT_ID":60470,"ELEMENT_SET_NO":999,"REV_AT_EPOCH":8679,"BSTAR":0.00031420974,"MEAN_MOTION_DOT":8.925e-5,"MEAN_MOTION_DDOT":0}]
